MONOLITH                
1 49052U 21068A   26068.54548855  .00008348  00000+0  53656-3 0  9993
2 49052  37.0220 141.2957 0002679 131.6464 228.4511 15.08010119252226
STARLINK-3135           
1 49424U 21104S   26068.75608865 -.00000300  00000+0 -74200-6 0  9991
2 49424  53.2173 228.8230 0001512  94.7788 265.3377 15.08839991238631
